{"type":"FeatureCollection","features":[{"type":"Feature","properties":{"name":"Jin's house","type":"apartment","zipcode":98105},"geometry":{"type":"Point","coordinates":[-482.3162439465523,47.65952900747998]}},{"type":"Feature","properties":{"name":"Ugly Mug Cafe & Coffee Roasters","type":"cafe","zipcode":98105},"geometry":{"type":"Point","coordinates":[-482.31403380632395,47.659697017389476]}},{"type":"Feature","properties":{"name":"Cafe Allegro","type":"cafe","zipcode":98105},"geometry":{"type":"Point","coordinates":[-482.3126631975174,47.65869436959263]}},{"type":"Feature","properties":{"name":"Cafe on the Ave","type":"cafe","zipcode":98105},"geometry":{"type":"Point","coordinates":[-482.31335788965225,47.6584125407992]}},{"type":"Feature","properties":{"name":"Cafe Solstice","type":"cafe","zipcode":98105},"geometry":{"type":"Point","coordinates":[-482.3130950331688,47.657333989635084]}},{"type":"Feature","properties":{"name":"Starbucks","type":"cafe","zipcode":98105},"geometry":{"type":"Point","coordinates":[-482.31340080499643,47.658208394633355]}},{"type":"Feature","properties":{"name":"Madeline Bread & Dessert","type":"cafe","zipcode":98105},"geometry":{"type":"Point","coordinates":[-482.31305211782455,47.65821200784678]}},{"type":"Feature","properties":{"name":"Sweet Alchemy","type":"ice cream shop","zipcode":98105},"geometry":{"type":"Point","coordinates":[-482.3133337497711,47.65989573808991]}},{"type":"Feature","properties":{"name":"Sureshot Espresso","type":"cafe","zipcode":98105},"geometry":{"type":"Point","coordinates":[-482.31326401233673,47.66144031410945]}},{"type":"Feature","properties":{"name":"Tea Republik","type":"cafe","zipcode":98105},"geometry":{"type":"Point","coordinates":[-482.3132559657097,47.66210329354151]}},{"type":"Feature","properties":{"name":"Starbucks","type":"cafe","zipcode":98105},"geometry":{"type":"Point","coordinates":[-482.3132559657097,47.662863812711834]}},{"type":"Feature","properties":{"name":"Woodland Park Zoo","type":"park","zipcode":98103},"geometry":{"type":"Polygon","coordinates":[[[-482.35439300537115,47.665098338190205],[-482.35439300537115,47.6717742486687],[-482.347354888916,47.6717742486687],[-482.347354888916,47.665098338190205],[-482.35439300537115,47.665098338190205]]]}}]}